KUIPER-00152            
1 65772U 25217L   26024.25002315 -.00040806  00000+0 -50309-2 0  9994
2 65772  51.8981 227.1593 0001139  76.8795 191.4477 14.82543574  5355
KUIPER-00153            
1 65773U 25217M   26023.87507956  .00013364  00000+0  77676-3 0  9997
2 65773  51.8771 236.2178 0012668 168.7774 191.3486 15.12308938 18316
KUIPER-00155            
1 65774U 25217N   26023.83649313  .00023485  00000+0  10272-2 0  9991
2 65774  51.8800 223.5506 0005901 185.2644 174.8275 15.21939865 18485
KUIPER-00156            
1 65775U 25217P   26024.25002315 -.01893967  00000+0 -18852+0 0  9996
2 65775  51.8934 222.7380 0005852 291.1575 225.8806 14.94633135  3515
KUIPER-00158            
1 65776U 25217Q   26023.90811690  .00007549  00000+0  10171-2 0  9991
2 65776  51.8956 243.6109 0000910 126.8950 233.2096 14.79973573 18215
KUIPER-00163            
1 65777U 25217R   26023.90552882  .00006030  00000+0  81922-3 0  9994
2 65777  51.8959 246.1273 0001152 109.7084 250.4002 14.79933883 18179
KUIPER-00165            
1 65778U 25217S   26024.29042870  .00004370  00000+0  60163-3 0  9998
2 65778  51.8977 231.9336 0000422  55.9534 304.1468 14.79952606 18406
KUIPER-00166            
1 65779U 25217T   26024.25002315 -.01762825  00000+0 -14267+0 0  9994
2 65779  51.8868 220.9556 0002570 178.2370 157.5313 15.02879312  5720
